IRIDIUM 136             
1 42962U 17061H   24255.49942791  .00000783  00000+0  27248-3 0  9994
2 42962  86.3935 294.2452 0002135  88.0448 272.0992 14.34220699362574
